{
    "links": {
        "self": "http://www.neowsapp.com/rest/v1/neo/3408591?api_key=iIulBulltgU6a56xZRHN4H3l9WmuAYTsLGpBGhQ2"
    },
    "id": "3408591",
    "neo_reference_id": "3408591",
    "name": "(2008 GZ3)",
    "designation": "2008 GZ3",
    "nasa_jpl_url": "http://ssd.jpl.nasa.gov/sbdb.cgi?sstr=3408591",
    "absolute_magnitude_h": 25.2,
    "estimated_diameter": {
        "kilometers": {
            "estimated_diameter_min": 0.0242412481,
            "estimated_diameter_max": 0.0542050786
        },
        "meters": {
            "estimated_diameter_min": 24.2412481101,
            "estimated_diameter_max": 54.2050786336
        },
        "miles": {
            "estimated_diameter_min": 0.0150628086,
            "estimated_diameter_max": 0.0336814639
        },
        "feet": {
            "estimated_diameter_min": 79.5316564495,
            "estimated_diameter_max": 177.8381901842
        }
    },
    "is_potentially_hazardous_asteroid": false,
    "close_approach_data": [
        {
            "close_approach_date": "2008-04-10",
            "close_approach_date_full": "2008-Apr-10 18:45",
            "epoch_date_close_approach": 1207853100000,
            "relative_velocity": {
                "kilometers_per_second": "5.8126597972",
                "kilometers_per_hour": "20925.5752698112",
                "miles_per_hour": "13002.3387002891"
            },
            "miss_distance": {
                "astronomical": "0.0516648824",
                "lunar": "20.0976392536",
                "kilometers": "7728956.360840488",
                "miles": "4802550.7853872144"
            },
            "orbiting_body": "Earth"
        }
    ],
    "orbital_data": {
        "orbit_id": "9",
        "orbit_determination_date": "2017-04-06 09:21:26",
        "first_observation_date": "2008-04-08",
        "last_observation_date": "2008-04-15",
        "data_arc_in_days": 7,
        "observations_used": 20,
        "orbit_uncertainty": "8",
        "minimum_orbit_intersection": ".0499549",
        "jupiter_tisserand_invariant": "3.621",
        "epoch_osculation": "2454567.5",
        "eccentricity": ".4894333595097458",
        "semi_major_axis": "2.06201766253831",
        "inclination": "1.064265147283184",
        "ascending_node_longitude": "34.36233341516558",
        "orbital_period": "1081.526084560837",
        "perihelion_distance": "1.052797430593752",
        "perihelion_argument": "168.2319337455432",
        "aphelion_distance": "3.071237894482869",
        "perihelion_time": "2454568.124841180213",
        "mean_anomaly": "359.7920135001016",
        "mean_motion": ".3328629842027166",
        "equinox": "J2000",
        "orbit_class": {
            "orbit_class_type": "AMO",
            "orbit_class_description": "Near-Earth asteroid orbits similar to that of 1221 Amor",
            "orbit_class_range": "1.017 AU < q (perihelion) < 1.3 AU"
        }
    },
    "is_sentry_object": false
}